NORAD_CAT_ID,OBJECT_NAME,OBJECT_TYPE,EPOCH,MEAN_MOTION,ECCENTRICITY,INCLINATION,RA_OF_ASC_NODE,ARG_OF_PERICENTER,MEAN_ANOMALY,BSTAR,MEAN_MOTION_DOT,MEAN_MOTION_DDOT,TLE_LINE0,TLE_LINE1,TLE_LINE2,SEMIMAJOR_AXIS,PERIOD,APOGEE,PERIGEE,DECAYED
51979.0,STARLINK-3656,PAYLOAD,2024-08-04 00:59:24,15.0885411,0.0001381,53.216,134.7342,82.749,277.3659,1.2788e-05,-8.4e-07,0.0,0 STARLINK-3656,1 51979U 22025Z   24217.04125062 -.00000084  00000-0  12788-4 0  9991,2 51979  53.2160 134.7342 0001381  82.7490 277.3659 15.08854110134210,6917.837,95.437,540.658,538.747,0.0
51979.0,STARLINK-3656,PAYLOAD,2024-08-04 12:07:05,15.0885615,0.0001431,53.2163,132.6538,82.0112,278.1043,6.1142e-05,6.86e-06,0.0,0 STARLINK-3656,1 51979U 22025Z   24217.50492528  .00000686  00000-0  61142-4 0  9991,2 51979  53.2163 132.6538 0001431  82.0112 278.1043 15.08856150133173,6917.831,95.437,540.686,538.706,0.0
51979.0,STARLINK-3656,PAYLOAD,2024-08-04 21:39:24,15.08841827,0.0001496,53.216,130.8691,90.5726,269.5438,0.00021596,3.151e-05,0.0,0 STARLINK-3656,1 51979U 22025Z   24217.90237236  .00003151  00000-0  21596-3 0  9996,2 51979  53.2160 130.8691 0001496  90.5726 269.5438 15.08841827134343,6917.875,95.437,540.775,538.705,0.0
51979.0,STARLINK-3656,PAYLOAD,2024-08-05 21:30:12,15.08832141,0.0001755,53.2172,126.4091,107.531,252.5874,-0.00012289,-2.243e-05,0.0,0 STARLINK-3656,1 51979U 22025Z   24218.89598348 -.00002243  00000-0 -12289-3 0  9991,2 51979  53.2172 126.4091 0001755 107.5310 252.5874 15.08832141134498,6917.904,95.438,540.984,538.555,0.0
51979.0,STARLINK-3656,PAYLOAD,2024-08-05 23:05:36,15.08831632,0.0001678,53.2176,126.112,109.0639,251.0535,-7.132e-05,-1.423e-05,0.0,0 STARLINK-3656,1 51979U 22025Z   24218.96222843 -.00001423  00000-0 -71320-4 0  9994,2 51979  53.2176 126.1120 0001678 109.0639 251.0535 15.08831632133397,6917.906,95.438,540.932,538.61,0.0
51979.0,STARLINK-3656,PAYLOAD,2024-08-06 03:51:45,15.08833252,0.0001379,53.2148,125.2182,79.7446,280.3701,-8.2909e-05,-1.607e-05,0.0,0 STARLINK-3656,1 51979U 22025Z   24219.16094898 -.00001607  00000-0 -82909-4 0  9993,2 51979  53.2148 125.2182 0001379  79.7446 280.3701 15.08833252133425,6917.901,95.438,540.72,538.812,0.0
51979.0,STARLINK-3656,PAYLOAD,2024-08-06 21:21:00,15.08838567,0.0001515,53.2148,121.9473,92.372,267.7446,3.6979e-05,3.01e-06,0.0,0 STARLINK-3656,1 51979U 22025Z   24219.88958457  .00000301  00000-0  36979-4 0  9996,2 51979  53.2148 121.9473 0001515  92.3720 267.7446 15.08838567133530,6917.885,95.438,540.798,538.702,0.0
51979.0,STARLINK-3656,PAYLOAD,2024-08-07 00:31:45,15.08849484,0.0001363,53.2167,121.3501,94.2343,265.8805,4.8559e-05,4.85e-06,0.0,0 STARLINK-3656,1 51979U 22025Z   24220.02205754  .00000485  00000-0  48559-4 0  9999,2 51979  53.2167 121.3501 0001363  94.2343 265.8805 15.08849484134663,6917.851,95.437,540.659,538.773,0.0
51979.0,STARLINK-3656,PAYLOAD,2024-08-07 21:11:47,15.08838818,0.0001282,53.2157,117.4834,94.9862,265.1276,0.00020288,2.942e-05,0.0,0 STARLINK-3656,1 51979U 22025Z   24220.88318607  .00002942  00000-0  20288-3 0  9993,2 51979  53.2157 117.4834 0001282  94.9862 265.1276 15.08838818134798,6917.884,95.438,540.636,538.862,0.0
51979.0,STARLINK-3656,PAYLOAD,2024-08-08 01:57:56,15.08845358,0.0001485,53.2165,116.5936,83.1686,276.9475,0.0003599,5.445e-05,0.0,0 STARLINK-3656,1 51979U 22025Z   24221.08190382  .00005445  00000-0  35990-3 0  9991,2 51979  53.2165 116.5936 0001485  83.1686 276.9475 15.08845358133718,6917.864,95.437,540.756,538.702,0.0
51979.0,STARLINK-3656,PAYLOAD,2024-08-08 22:37:56,15.08848868,0.0001432,53.2164,112.7273,91.0254,269.0902,2.0848e-05,4.4e-07,0.0,0 STARLINK-3656,1 51979U 22025Z   24221.94301870  .00000044  00000-0  20848-4 0  9999,2 51979  53.2164 112.7273 0001432  91.0254 269.0902 15.08848868133841,6917.853,95.437,540.709,538.728,0.0
51979.0,STARLINK-3656,PAYLOAD,2024-08-09 01:48:42,15.08858308,0.0001307,53.2161,112.1298,91.4055,268.7087,0.00019945,2.889e-05,0.0,0 STARLINK-3656,1 51979U 22025Z   24222.07549373  .00002889  00000-0  19945-3 0  9990,2 51979  53.2161 112.1298 0001307  91.4055 268.7087 15.08858308134978,6917.824,95.436,540.594,538.785,0.0
51979.0,STARLINK-3656,PAYLOAD,2024-08-09 09:45:38,15.08840554,0.0001026,53.2165,110.6438,105.8692,254.2413,-3.4339e-06,-3.42e-06,0.0,0 STARLINK-3656,1 51979U 22025Z   24222.40670057 -.00000342  00000-0 -34339-5 0  9991,2 51979  53.2165 110.6438 0001026 105.8692 254.2413 15.08840554135020,6917.879,95.438,540.453,539.034,0.0
51979.0,STARLINK-3656,PAYLOAD,2024-08-09 20:53:20,15.08842777,0.0001298,53.216,108.5673,99.4398,260.6741,-8.2588e-05,-1.602e-05,0.0,0 STARLINK-3656,1 51979U 22025Z   24222.87038067 -.00001602  00000-0 -82588-4 0  9999,2 51979  53.2160 108.5673 0001298  99.4398 260.6741 15.08842777133981,6917.872,95.437,540.635,538.839,0.0
51979.0,STARLINK-3656,PAYLOAD,2024-08-10 00:04:06,15.08854288,0.0001666,53.216,107.9671,87.8382,272.2801,0.00019594,2.833e-05,0.0,0 STARLINK-3656,1 51979U 22025Z   24223.00285686  .00002833  00000-0  19594-3 0  9997,2 51979  53.2160 107.9671 0001666  87.8382 272.2801 15.08854288135118,6917.837,95.437,540.854,538.549,0.0
51979.0,STARLINK-3656,PAYLOAD,2024-08-10 20:44:07,15.08850566,0.000127,53.216,104.1028,91.2237,268.8901,6.9639e-05,8.21e-06,0.0,0 STARLINK-3656,1 51979U 22025Z   24223.86397573  .00000821  00000-0  69639-4 0  9991,2 51979  53.2160 104.1028 0001270  91.2237 268.8901 15.08850566135243,6917.848,95.437,540.592,538.835,0.0
51979.0,STARLINK-3656,PAYLOAD,2024-08-10 22:19:30,15.08849743,0.0001569,53.216,103.8049,152.7867,207.3208,3.2376e-05,2.27e-06,0.0,0 STARLINK-3656,1 51979U 22025Z   24223.93021175  .00000227  00000-0  32376-4 0  9999,2 51979  53.2160 103.8049 0001569 152.7867 207.3208 15.08849743134146,6917.851,95.437,540.801,538.63,0.0
51979.0,STARLINK-3656,PAYLOAD,2024-08-11 01:30:17,15.08835533,0.0001068,53.216,103.211,93.9383,266.1731,-0.0001406,-2.524e-05,0.0,0 STARLINK-3656,1 51979U 22025Z   24224.06270120 -.00002524  00000-0 -14060-3 0  9993,2 51979  53.2160 103.2110 0001068  93.9383 266.1731 15.08835533135273,6917.894,95.438,540.498,539.02,0.0
51979.0,STARLINK-3656,PAYLOAD,2024-08-11 09:27:13,15.08827377,0.0001126,53.2163,101.7225,92.5884,267.5237,-0.00022564,-3.876e-05,0.0,0 STARLINK-3656,1 51979U 22025Z   24224.39390862 -.00003876  00000-0 -22564-3 0  9994,2 51979  53.2163 101.7225 0001126  92.5884 267.5237 15.08827377135321,6917.919,95.438,540.563,539.005,0.0
51979.0,STARLINK-3656,PAYLOAD,2024-08-11 22:10:17,15.08853229,0.000174,53.2169,99.3468,94.2986,265.8205,0.00027477,4.089e-05,0.0,0 STARLINK-3656,1 51979U 22025Z   24224.92381155  .00004089  00000-0  27477-3 0  9991,2 51979  53.2169  99.3468 0001740  94.2986 265.8205 15.08853229134298,6917.84,95.437,540.909,538.501,0.0
51979.0,STARLINK-3656,PAYLOAD,2024-08-12 01:21:02,15.0886757,0.0001062,53.2172,98.7481,90.5796,269.5318,0.00017319,2.472e-05,0.0,0 STARLINK-3656,1 51979U 22025Z   24225.05628268  .00002472  00000-0  17319-3 0  9993,2 51979  53.2172  98.7481 0001062  90.5796 269.5318 15.08867570135421,6917.796,95.436,540.396,538.926,0.0
51979.0,STARLINK-3656,PAYLOAD,2024-08-12 15:39:32,15.08834106,8.85e-05,53.2162,96.072,105.8173,254.2916,0.00015644,2.203e-05,0.0,0 STARLINK-3656,1 51979U 22025Z   24225.65245997  .00002203  00000-0  15644-3 0  9994,2 51979  53.2162  96.0720 0000885 105.8173 254.2916 15.08834106135512,6917.898,95.438,540.376,539.151,0.0
51979.0,STARLINK-3656,PAYLOAD,2024-08-12 22:01:03,15.08859179,8.98e-05,53.2163,94.8825,115.2914,244.8171,0.00035429,5.358e-05,0.0,0 STARLINK-3656,1 51979U 22025Z   24225.91739923  .00005358  00000-0  35429-3 0  9997,2 51979  53.2163  94.8825 0000898 115.2914 244.8171 15.08859179134443,6917.822,95.436,540.308,539.066,0.0
51979.0,STARLINK-3656,PAYLOAD,2024-08-13 15:30:20,15.0882419,0.0001167,53.216,91.6141,98.1657,261.9468,-0.00014058,-2.523e-05,0.0,0 STARLINK-3656,1 51979U 22025Z   24226.64607289 -.00002523  00000-0 -14058-3 0  9995,2 51979  53.2160  91.6141 0001167  98.1657 261.9468 15.08824190135668,6917.929,95.439,540.601,538.986,0.0
51979.0,STARLINK-3656,PAYLOAD,2024-08-13 21:51:54,15.08809096,0.0001132,53.2156,90.4247,84.7506,275.3616,-0.00054998,-9.022e-05,0.0,0 STARLINK-3656,1 51979U 22025Z   24226.91104273 -.00009022  00000-0 -54998-3 0  9998,2 51979  53.2156  90.4247 0001132  84.7506 275.3616 15.08809096134596,6917.975,95.44,540.623,539.057,0.0
51979.0,STARLINK-3656,PAYLOAD,2024-08-14 07:24:13,15.08824555,0.0001063,53.2171,88.64,101.2505,258.8606,-0.00023364,-4.003e-05,0.0,0 STARLINK-3656,1 51979U 22025Z   24227.30848644 -.00004003  00000-0 -23364-3 0  9996,2 51979  53.2171  88.6400 0001063 101.2505 258.8606 15.08824555135762,6917.928,95.439,540.528,539.057,0.0
51979.0,STARLINK-3656,PAYLOAD,2024-08-14 20:07:17,15.08840593,0.0001374,53.2164,86.2631,95.4983,264.6165,3.7826e-05,3.14e-06,0.0,0 STARLINK-3656,1 51979U 22025Z   24227.83839565  .00000314  00000-0  37826-4 0  9994,2 51979  53.2164  86.2631 0001374  95.4983 264.6165 15.08840593135847,6917.879,95.438,540.694,538.793,0.0
51979.0,STARLINK-3656,PAYLOAD,2024-08-14 21:42:40,15.088415,0.000141,53.216,85.9679,97.056,263.0593,7.6049e-05,9.23e-06,0.0,0 STARLINK-3656,1 51979U 22025Z   24227.90463564  .00000923  00000-0  76049-4 0  9990,2 51979  53.2160  85.9679 0001410  97.0560 263.0593 15.08841500134746,6917.876,95.437,540.716,538.765,0.0
51979.0,STARLINK-3656,PAYLOAD,2024-08-15 07:14:59,15.08842132,0.0001032,53.2145,84.1779,76.3447,283.766,0.00045148,6.905e-05,0.0,0 STARLINK-3656,1 51979U 22025Z   24228.30207748  .00006905  00000-0  45148-3 0  9996,2 51979  53.2145  84.1779 0001032  76.3447 283.7660 15.08842132134808,6917.874,95.437,540.453,539.025,0.0
51979.0,STARLINK-3656,PAYLOAD,2024-08-16 22:59:37,15.08847997,0.0001341,53.215,76.7464,92.6838,267.4307,4.3139e-05,3.99e-06,0.0,0 STARLINK-3656,1 51979U 22025Z   24229.95807743  .00000399  00000-0  43139-4 0  9999,2 51979  53.2150  76.7464 0001341  92.6838 267.4307 15.08847997136162,6917.856,95.437,540.649,538.793,0.0
